STARLINK-37975          
1 69707U 26147D   26183.25003472 -.02398214  16441-2 -54773-2 0  9999
2 69707  97.2833 218.8422 0001182  82.7963 146.8104 15.97592339  1667
STARLINK-37972          
1 69708U 26147E   26183.25003472 -.02383247  16275-2 -53901-2 0  9997
2 69708  97.2832 218.8426 0001166  82.7720 147.8861 15.97769675  1664
STARLINK-37963          
1 69709U 26147F   26183.25003472 -.02377964  16239-2 -53269-2 0  9994
2 69709  97.2832 218.8429 0001332  84.1705 147.5123 15.97942833  1669
STARLINK-37969          
1 69710U 26147G   26183.25003472 -.02360124  16034-2 -52370-2 0  9991
2 69710  97.2832 218.8434 0001251  85.3036 147.4239 15.98114239  1813
STARLINK-37956          
1 69711U 26147H   26183.25003472 -.02331070  15675-2 -51348-2 0  9994
2 69711  97.2831 218.8438 0001272  77.6687 155.8971 15.98245484  1662
STARLINK-38043          
1 69712U 26147J   26183.25003472 -.02298961  15285-2 -50210-2 0  9990
2 69712  97.2830 218.8442 0001285  86.4208 148.1666 15.98398199  1666
STARLINK-38020          
1 69713U 26147K   26183.25003472 -.02281260  15086-2 -49371-2 0  9990
2 69713  97.2829 218.8447 0001252  86.3073 149.3256 15.98561802  1664
STARLINK-38059          
1 69714U 26147L   26183.25003472 -.02268292  14947-2 -48681-2 0  9999
2 69714  97.2829 218.8455 0001142  79.7382 156.8192 15.98711920  1661
STARLINK-38061          
1 69715U 26147M   26183.25003472 -.02252488  14772-2 -47938-2 0  9990
2 69715  97.2828 218.8459 0001289  74.1777 163.3498 15.98861366  1756
STARLINK-38060          
1 69716U 26147N   26183.25003472 -.02239269  14630-2 -47269-2 0  9993
2 69716  97.2829 218.8457 0001243  71.2286 167.2156 15.99006953  1757
STARLINK-38040          
1 69717U 26147P   26183.25003472 -.02213572  14328-2 -46391-2 0  9992
2 69717  97.2829 218.8462 0001227  74.8238 164.4950 15.99134591  1753
STARLINK-37989          
1 69718U 26147Q   26183.25003472 -.02193044  14098-2 -45569-2 0  9994
2 69718  97.2829 218.8464 0001325  81.5316 158.7932 15.99285918  1753
STARLINK-38039          
1 69719U 26147R   26183.25003472 -.02173788  13882-2 -44826-2 0  9993
2 69719  97.2828 218.8468 0001359  80.1656 161.0766 15.99420490  1754
STARLINK-38003          
1 69720U 26147S   26183.25003472 -.02162549  13771-2 -44183-2 0  9991
2 69720  97.2826 218.8473 0001189  81.5821 160.7374 15.99584748  1758
STARLINK-38014          
1 69721U 26147T   26183.25003472 -.02144835  13574-2 -43522-2 0  9997
2 69721  97.2826 218.8479 0001255  81.6796 161.4664 15.99705326  1758
STARLINK-37915          
1 69722U 26147U   26183.25003472 -.02137617  13512-2 -42987-2 0  9994
2 69722  97.2827 218.8483 0001149  81.9723 162.2197 15.99864730  1755
STARLINK-38007          
1 69723U 26147V   26183.25003472 -.02125169  13381-2 -42431-2 0  9992
2 69723  97.2826 218.8485 0001069  81.7954 163.2647 15.99991011  1756
STARLINK-38008          
1 69724U 26147W   26183.25003472 -.02098107  13073-2 -41627-2 0  9998
2 69724  97.2828 218.8489 0001082  80.9030 164.9614 16.00100474  1754
STARLINK-38021          
1 69725U 26147X   26183.25003472 -.02092845  13034-2 -41167-2 0  9998
2 69725  97.2827 218.8497 0001086  81.3350 165.8106 16.00252110  1758
STARLINK-38015          
1 69726U 26147Y   26183.25003472 -.02062312  12688-2 -40299-2 0  9994
2 69726  97.2827 218.8500 0000938  95.5632 152.4946 16.00366411  1753
STARLINK-38010          
1 69727U 26147Z   26183.25003472 -.02072605  12833-2 -40169-2 0  9999
2 69727  97.2826 218.8503 0001107  76.9443 172.0094 16.00511593  1753
SXM-11                  
1 69728U 26148A   26182.81095254 -.00000235  00000+0  00000+0 0  9995
2 69728  26.8832 144.5813 6480880 177.3988 189.3958  3.36250226   110
