OBJECT_NAME,OBJECT_ID,EPOCH,MEAN_MOTION,ECCENTRICITY,INCLINATION,RA_OF_ASC_NODE,ARG_OF_PERICENTER,MEAN_ANOMALY,EPHEMERIS_TYPE,CLASSIFICATION_TYPE,NORAD_CAT_ID,ELEMENT_SET_NO,REV_AT_EPOCH,BSTAR,MEAN_MOTION_DOT,MEAN_MOTION_DDOT
STARLINK-37975,2026-147D,2026-07-02T06:00:02.999808,15.97592339,.00011828,97.2833,218.8422,82.7963,146.8104,0,U,69707,999,166,-.54772555E-2,-.2398214E-1,.16440669E-2
STARLINK-37972,2026-147E,2026-07-02T06:00:02.999808,15.97769675,.00011664,97.2832,218.8426,82.7720,147.8861,0,U,69708,999,166,-.5390119E-2,-.2383247E-1,.16275035E-2
STARLINK-37963,2026-147F,2026-07-02T06:00:02.999808,15.97942833,.00013329,97.2832,218.8429,84.1705,147.5123,0,U,69709,999,166,-.53269411E-2,-.2377964E-1,.16238694E-2
STARLINK-37969,2026-147G,2026-07-02T06:00:02.999808,15.98114239,.00012515,97.2832,218.8434,85.3036,147.4239,0,U,69710,999,181,-.52370447E-2,-.2360124E-1,.16034232E-2
STARLINK-37956,2026-147H,2026-07-02T06:00:02.999808,15.98245484,.00012726,97.2831,218.8438,77.6687,155.8971,0,U,69711,999,166,-.51347941E-2,-.233107E-1,.15675225E-2
STARLINK-38043,2026-147J,2026-07-02T06:00:02.999808,15.98398199,.00012856,97.2830,218.8442,86.4208,148.1666,0,U,69712,999,166,-.50209705E-2,-.2298961E-1,.15284761E-2
STARLINK-38020,2026-147K,2026-07-02T06:00:02.999808,15.98561802,.00012522,97.2829,218.8447,86.3073,149.3256,0,U,69713,999,166,-.49370575E-2,-.228126E-1,.15086247E-2
STARLINK-38059,2026-147L,2026-07-02T06:00:02.999808,15.98711920,.00011421,97.2829,218.8455,79.7382,156.8192,0,U,69714,999,166,-.48680771E-2,-.2268292E-1,.14947036E-2
STARLINK-38061,2026-147M,2026-07-02T06:00:02.999808,15.98861366,.0001289,97.2828,218.8459,74.1777,163.3498,0,U,69715,999,175,-.47937598E-2,-.2252488E-1,.1477201E-2
STARLINK-38060,2026-147N,2026-07-02T06:00:02.999808,15.99006953,.00012439,97.2829,218.8457,71.2286,167.2156,0,U,69716,999,175,-.47269025E-2,-.2239269E-1,.14629935E-2
STARLINK-38040,2026-147P,2026-07-02T06:00:02.999808,15.99134591,.00012276,97.2829,218.8462,74.8238,164.4950,0,U,69717,999,175,-.46390564E-2,-.2213572E-1,.14328153E-2
STARLINK-37989,2026-147Q,2026-07-02T06:00:02.999808,15.99285918,.00013253,97.2829,218.8464,81.5316,158.7932,0,U,69718,999,175,-.45568696E-2,-.2193044E-1,.14097764E-2
STARLINK-38039,2026-147R,2026-07-02T06:00:02.999808,15.99420490,.00013597,97.2828,218.8468,80.1656,161.0766,0,U,69719,999,175,-.4482558E-2,-.2173788E-1,.1388198E-2
STARLINK-38003,2026-147S,2026-07-02T06:00:02.999808,15.99584748,.00011895,97.2826,218.8473,81.5821,160.7374,0,U,69720,999,175,-.44183434E-2,-.2162549E-1,.13771055E-2
STARLINK-38014,2026-147T,2026-07-02T06:00:02.999808,15.99705326,.00012556,97.2826,218.8479,81.6796,161.4664,0,U,69721,999,175,-.4352173E-2,-.2144835E-1,.13573977E-2
STARLINK-37915,2026-147U,2026-07-02T06:00:02.999808,15.99864730,.00011496,97.2827,218.8483,81.9723,162.2197,0,U,69722,999,175,-.42986641E-2,-.2137617E-1,.13512137E-2
STARLINK-38007,2026-147V,2026-07-02T06:00:02.999808,15.99991011,.00010699,97.2826,218.8485,81.7954,163.2647,0,U,69723,999,175,-.42430917E-2,-.2125169E-1,.13381373E-2
STARLINK-38008,2026-147W,2026-07-02T06:00:02.999808,16.00100474,.00010826,97.2828,218.8489,80.9030,164.9614,0,U,69724,999,175,-.41627212E-2,-.2098107E-1,.13072617E-2
STARLINK-38021,2026-147X,2026-07-02T06:00:02.999808,16.00252110,.00010868,97.2827,218.8497,81.3350,165.8106,0,U,69725,999,175,-.41166737E-2,-.2092845E-1,.13033607E-2
STARLINK-38015,2026-147Y,2026-07-02T06:00:02.999808,16.00366411,.00009385,97.2827,218.8500,95.5632,152.4946,0,U,69726,999,175,-.40299118E-2,-.2062312E-1,.12688404E-2
STARLINK-38010,2026-147Z,2026-07-02T06:00:02.999808,16.00511593,.00011071,97.2826,218.8503,76.9443,172.0094,0,U,69727,999,175,-.40168547E-2,-.2072605E-1,.12832876E-2
SXM-11,2026-148A,2026-07-01T19:27:46.299456,3.36250226,.64808807,26.8832,144.5813,177.3988,189.3958,0,U,69728,999,11,0,-.235E-5,0
